NORAD_CAT_ID,OBJECT_NAME,OBJECT_TYPE,EPOCH,MEAN_MOTION,ECCENTRICITY,INCLINATION,RA_OF_ASC_NODE,ARG_OF_PERICENTER,MEAN_ANOMALY,BSTAR,MEAN_MOTION_DOT,MEAN_MOTION_DDOT,TLE_LINE0,TLE_LINE1,TLE_LINE2,SEMIMAJOR_AXIS,PERIOD,APOGEE,PERIGEE,DECAYED
55432.0,STARLINK-5637,PAYLOAD,2024-02-03 13:52:03,14.98332351,0.0002837,69.9988,233.5199,269.9034,90.18,3.7792e-05,3.58e-06,0.0,0 STARLINK-5637,1 55432U 23014AT  24034.57782313  .00000358  00000-0  37792-4 0  9996,2 55432  69.9988 233.5199 0002837 269.9034  90.1800 14.98332351 56463,6950.186,96.107,574.022,570.079,0.0
55432.0,STARLINK-5637,PAYLOAD,2024-02-03 18:40:28,14.98333123,0.0002827,69.9989,233.0148,270.4426,89.6409,4.7006e-05,4.68e-06,0.0,0 STARLINK-5637,1 55432U 23014AT  24034.77810211  .00000468  00000-0  47006-4 0  9998,2 55432  69.9989 233.0148 0002827 270.4426  89.6409 14.98333123 55559,6950.183,96.107,574.013,570.083,0.0
55432.0,STARLINK-5637,PAYLOAD,2024-02-03 21:52:44,14.98333451,0.0002821,69.9989,232.6781,270.6702,89.4134,4.9038e-05,4.92e-06,0.0,0 STARLINK-5637,1 55432U 23014AT  24034.91162143  .00000492  00000-0  49038-4 0  9992,2 55432  69.9989 232.6781 0002821 270.6702  89.4134 14.98333451 56514,6950.182,96.107,574.008,570.087,0.0
55432.0,STARLINK-5637,PAYLOAD,2024-02-04 13:54:05,14.98328057,0.0002681,69.9993,230.9948,269.9225,90.1626,-6.3841e-06,-1.69e-06,0.0,0 STARLINK-5637,1 55432U 23014AT  24035.57922628 -.00000169  00000-0 -63841-5 0  9999,2 55432  69.9993 230.9948 0002681 269.9225  90.1626 14.98328057 56612,6950.199,96.107,573.927,570.201,0.0
55432.0,STARLINK-5637,PAYLOAD,2024-02-04 20:18:37,14.98323631,0.00028,69.9991,230.3219,269.2125,90.8713,-6.5581e-05,-8.75e-06,0.0,0 STARLINK-5637,1 55432U 23014AT  24035.84627102 -.00000875  00000-0 -65581-4 0  9994,2 55432  69.9991 230.3219 0002800 269.2125  90.8713 14.98323631 55717,6950.213,96.107,574.024,570.132,0.0
55432.0,STARLINK-5637,PAYLOAD,2024-02-04 21:54:45,14.98322856,0.0002804,69.9991,230.1535,269.2668,90.817,-7.4183e-05,-9.78e-06,0.0,0 STARLINK-5637,1 55432U 23014AT  24035.91303186 -.00000978  00000-0 -74183-4 0  9997,2 55432  69.9991 230.1535 0002804 269.2668  90.8170 14.98322856 56662,6950.215,96.107,574.029,570.131,0.0
55432.0,STARLINK-5637,PAYLOAD,2024-02-05 13:56:06,14.98327694,0.000289,69.999,228.4703,269.0857,90.9971,-4.7556e-05,-6.6e-06,0.0,0 STARLINK-5637,1 55432U 23014AT  24036.58063008 -.00000660  00000-0 -47556-4 0  9999,2 55432  69.9990 228.4703 0002890 269.0857  90.9971 14.98327694 56767,6950.2,96.107,574.074,570.056,0.0
55432.0,STARLINK-5637,PAYLOAD,2024-02-05 20:20:38,14.98328143,0.0002893,69.9991,227.7969,269.9057,90.1771,-3.6119e-05,-5.24e-06,0.0,0 STARLINK-5637,1 55432U 23014AT  24036.84766995 -.00000524  00000-0 -36119-4 0  9995,2 55432  69.9991 227.7969 0002893 269.9057  90.1771 14.98328143 55868,6950.199,96.107,574.074,570.053,0.0
55432.0,STARLINK-5637,PAYLOAD,2024-02-05 21:56:46,14.98328089,0.0002893,69.9991,227.6286,269.9622,90.1205,-3.5627e-05,-5.18e-06,0.0,0 STARLINK-5637,1 55432U 23014AT  24036.91443007 -.00000518  00000-0 -35627-4 0  9995,2 55432  69.9991 227.6286 0002893 269.9622  90.1205 14.98328089 56814,6950.199,96.107,574.074,570.053,0.0
55432.0,STARLINK-5637,PAYLOAD,2024-02-06 13:58:07,14.98325625,0.0002962,69.999,225.9451,270.1218,89.9602,9.5672e-05,1.049e-05,0.0,0 STARLINK-5637,1 55432U 23014AT  24037.58202905  .00001049  00000-0  95672-4 0  9993,2 55432  69.9990 225.9451 0002962 270.1218  89.9602 14.98325625 56911,6950.206,96.107,574.13,570.013,0.0
55432.0,STARLINK-5637,PAYLOAD,2024-02-06 21:58:47,14.98328315,0.0002919,69.9992,225.1036,269.7416,90.3409,0.00011829,1.319e-05,0.0,0 STARLINK-5637,1 55432U 23014AT  24037.91582773  .00001319  00000-0  11829-3 0  9995,2 55432  69.9992 225.1036 0002919 269.7416  90.3409 14.98328315 56965,6950.198,96.107,574.092,570.034,0.0
55432.0,STARLINK-5637,PAYLOAD,2024-02-07 14:00:07,14.98334919,0.0002954,69.9991,223.4204,270.3395,89.7425,0.00011305,1.256e-05,0.0,0 STARLINK-5637,1 55432U 23014AT  24038.58342355  .00001256  00000-0  11305-3 0  9998,2 55432  69.9991 223.4204 0002954 270.3395  89.7425 14.98334919 57064,6950.178,96.107,574.096,569.99,0.0
55432.0,STARLINK-5637,PAYLOAD,2024-02-07 18:48:31,14.98336614,0.0002947,69.9992,222.9154,270.0866,89.9956,0.00012798,1.435e-05,0.0,0 STARLINK-5637,1 55432U 23014AT  24038.78370152  .00001435  00000-0  12798-3 0  9992,2 55432  69.9992 222.9154 0002947 270.0866  89.9956 14.98336614 56159,6950.172,96.107,574.086,569.989,0.0
55432.0,STARLINK-5637,PAYLOAD,2024-02-07 22:00:47,14.98337355,0.0002932,69.9993,222.5788,270.1184,89.9639,0.0001324,1.487e-05,0.0,0 STARLINK-5637,1 55432U 23014AT  24038.91722037  .00001487  00000-0  13240-3 0  9990,2 55432  69.9993 222.5788 0002932 270.1184  89.9639 14.98337355 57115,6950.17,96.107,574.073,569.997,0.0
55432.0,STARLINK-5637,PAYLOAD,2024-02-08 14:02:08,14.98332905,0.0002851,69.9995,220.895,270.5889,89.4943,1.5582e-05,9.3e-07,0.0,0 STARLINK-5637,1 55432U 23014AT  24039.58482468  .00000093  00000-0  15582-4 0  9999,2 55432  69.9995 220.8950 0002851 270.5889  89.4943 14.98332905 57215,6950.184,96.107,574.03,570.067,0.0
55432.0,STARLINK-5637,PAYLOAD,2024-02-08 18:50:33,14.98332229,0.0002871,69.9997,220.3901,270.7834,89.2996,4.053e-06,-4.5e-07,0.0,0 STARLINK-5637,1 55432U 23014AT  24039.78510496 -.00000045  00000-0  40530-5 0  9994,2 55432  69.9997 220.3901 0002871 270.7834  89.2996 14.98332229 56306,6950.186,96.107,574.046,570.056,0.0
55432.0,STARLINK-5637,PAYLOAD,2024-02-08 22:02:49,14.98332883,0.0002868,69.9997,220.0535,270.8703,89.2128,1.0094e-05,2.7e-07,0.0,0 STARLINK-5637,1 55432U 23014AT  24039.91862407  .00000027  00000-0  10094-4 0  9991,2 55432  69.9997 220.0535 0002868 270.8703  89.2128 14.98332883 57267,6950.184,96.107,574.042,570.056,0.0
55432.0,STARLINK-5637,PAYLOAD,2024-02-09 14:04:09,14.98339001,0.0002876,69.9998,218.3704,271.0276,89.0554,3.3016e-06,-5.4e-07,0.0,0 STARLINK-5637,1 55432U 23014AT  24040.58621786 -.00000054  00000-0  33016-5 0  9990,2 55432  69.9998 218.3704 0002876 271.0276  89.0554 14.98339001 57364,6950.165,96.106,574.029,570.031,0.0
55432.0,STARLINK-5637,PAYLOAD,2024-02-09 18:52:33,14.98339346,0.0002873,69.9998,217.8654,271.104,88.9789,8.8299e-06,1.2e-07,0.0,0 STARLINK-5637,1 55432U 23014AT  24040.78649639  .00000012  00000-0  88299-5 0  9995,2 55432  69.9998 217.8654 0002873 271.1040  88.9789 14.98339346 56458,6950.164,96.106,574.026,570.032,0.0
55432.0,STARLINK-5637,PAYLOAD,2024-02-10 12:30:02,14.9832952,0.0002815,70.0002,216.0142,273.1026,86.9811,1.5898e-05,9.7e-07,0.0,0 STARLINK-5637,1 55432U 23014AT  24041.52086023  .00000097  00000-0  15898-4 0  9997,2 55432  70.0002 216.0142 0002815 273.1026  86.9811 14.98329520 56561,6950.194,96.107,574.016,570.103,0.0
55432.0,STARLINK-5637,PAYLOAD,2024-02-10 14:06:10,14.98329493,0.0002823,70.0002,215.8458,272.9121,87.1715,1.6017e-05,9.8e-07,0.0,0 STARLINK-5637,1 55432U 23014AT  24041.58762037  .00000098  00000-0  16017-4 0  9994,2 55432  70.0002 215.8458 0002823 272.9121  87.1715 14.98329493 57511,6950.194,96.107,574.021,570.097,0.0
55432.0,STARLINK-5637,PAYLOAD,2024-02-10 20:30:42,14.98327816,0.0002801,70.0004,215.173,270.5919,89.4919,9.2993e-06,1.8e-07,0.0,0 STARLINK-5637,1 55432U 23014AT  24041.85466158  .00000018  00000-0  92993-5 0  9999,2 55432  70.0004 215.1730 0002801 270.5919  89.4919 14.98327816 57556,6950.2,96.107,574.011,570.118,0.0
55432.0,STARLINK-5637,PAYLOAD,2024-02-11 12:32:02,14.98334759,0.0003101,69.9998,213.4895,272.834,87.2464,-5.3372e-06,-1.57e-06,0.0,0 STARLINK-5637,1 55432U 23014AT  24042.52225642 -.00000157  00000-0 -53372-5 0  9999,2 55432  69.9998 213.4895 0003101 272.8340  87.2464 14.98334759 56717,6950.178,96.107,574.198,569.888,0.0
55432.0,STARLINK-5637,PAYLOAD,2024-02-11 14:08:10,14.98334022,0.0002741,70.0005,213.3215,262.7895,97.2953,3.1986e-05,2.89e-06,0.0,0 STARLINK-5637,1 55432U 23014AT  24042.58901535  .00000289  00000-0  31986-4 0  9997,2 55432  70.0005 213.3215 0002741 262.7895  97.2953 14.98334022 57668,6950.18,96.107,573.95,570.14,0.0
55432.0,STARLINK-5637,PAYLOAD,2024-02-11 20:32:42,14.98336935,0.0002827,70.0006,212.6487,268.1565,91.9271,2.1656e-05,1.65e-06,0.0,0 STARLINK-5637,1 55432U 23014AT  24042.85605294  .00000165  00000-0  21656-4 0  9996,2 55432  70.0006 212.6487 0002827 268.1565  91.9271 14.98336935 57705,6950.171,96.107,574.001,570.072,0.0
55432.0,STARLINK-5637,PAYLOAD,2024-02-12 12:34:03,14.98329086,0.0002798,70.001,210.9664,265.3888,94.6952,6.3735e-05,6.68e-06,0.0,0 STARLINK-5637,1 55432U 23014AT  24043.52365575  .00000668  00000-0  63735-4 0  9998,2 55432  70.0010 210.9664 0002798 265.3888  94.6952 14.98329086 56863,6950.196,96.107,574.005,570.116,0.0
55432.0,STARLINK-5637,PAYLOAD,2024-02-12 14:10:12,14.98328143,0.0002837,70.0008,210.798,265.4898,94.5937,4.99e-05,5.02e-06,0.0,0 STARLINK-5637,1 55432U 23014AT  24043.59041682  .00000502  00000-0  49900-4 0  9990,2 55432  70.0008 210.7980 0002837 265.4898  94.5937 14.98328143 57816,6950.199,96.107,574.035,570.092,0.0
55432.0,STARLINK-5637,PAYLOAD,2024-02-12 20:34:44,14.98327927,0.0002858,70.0008,210.1247,265.9113,94.1719,3.9351e-05,3.77e-06,0.0,0 STARLINK-5637,1 55432U 23014AT  24043.85745717  .00000377  00000-0  39351-4 0  9998,2 55432  70.0008 210.1247 0002858 265.9113  94.1719 14.98327927 57851,6950.199,96.107,574.051,570.078,0.0
55432.0,STARLINK-5637,PAYLOAD,2024-02-13 12:36:04,14.98333128,0.0002842,70.0009,208.4417,264.0223,96.0612,4.0842e-06,-4.4e-07,0.0,0 STARLINK-5637,1 55432U 23014AT  24044.52505491 -.00000044  00000-0  40842-5 0  9996,2 55432  70.0009 208.4417 0002842 264.0223  96.0612 14.98333128 57017,6950.183,96.107,574.023,570.073,0.0
55432.0,STARLINK-5637,PAYLOAD,2024-02-13 14:12:12,14.98333074,0.000285,70.0009,208.2734,264.0052,96.0782,4.4707e-06,-4e-07,0.0,0 STARLINK-5637,1 55432U 23014AT  24044.59181505 -.00000040  00000-0  44707-5 0  9999,2 55432  70.0009 208.2734 0002850 264.0052  96.0782 14.98333074 57968,6950.183,96.107,574.029,570.068,0.0
